CCSDS_OMM_VERS = 2.0
CREATION_DATE  = 
ORIGINATOR     = 

OBJECT_NAME    = COSMOS 1933
OBJECT_ID      = 1988-020A
CENTER_NAME    = EARTH
REF_FRAME      = TEME
TIME_SYSTEM    = UTC
MEAN_ELEMENT_THEORY = SGP/SGP4

EPOCH          = 2025-12-08T23:50:20.262048
MEAN_MOTION    = 15.17061583
ECCENTRICITY   = .00054806
INCLINATION    = 82.5136
RA_OF_ASC_NODE = 340.5805
ARG_OF_PERICENTER = 138.1939
MEAN_ANOMALY   = 221.9714

EPHEMERIS_TYPE = 0
CLASSIFICATION_TYPE = U
NORAD_CAT_ID   = 18958
ELEMENT_SET_NO = 999
REV_AT_EPOCH   = 3647
BSTAR          = .26491633E-3
MEAN_MOTION_DOT = .5273E-4
MEAN_MOTION_DDOT = 0

CCSDS_OMM_VERS = 2.0
CREATION_DATE  = 
ORIGINATOR     = 

OBJECT_NAME    = SL-3 R/B
OBJECT_ID      = 1988-032B
CENTER_NAME    = EARTH
REF_FRAME      = TEME
TIME_SYSTEM    = UTC
MEAN_ELEMENT_THEORY = SGP/SGP4

EPOCH          = 2025-12-08T21:47:55.612320
MEAN_MOTION    = 15.18679995
ECCENTRICITY   = .00262998
INCLINATION    = 97.5081
RA_OF_ASC_NODE = 321.6551
ARG_OF_PERICENTER = 186.3738
MEAN_ANOMALY   = 173.7166

EPHEMERIS_TYPE = 0
CLASSIFICATION_TYPE = U
NORAD_CAT_ID   = 19046
ELEMENT_SET_NO = 999
REV_AT_EPOCH   = 3832
BSTAR          = .32106634E-3
MEAN_MOTION_DOT = .6648E-4
MEAN_MOTION_DDOT = 0

CCSDS_OMM_VERS = 2.0
CREATION_DATE  = 
ORIGINATOR     = 

OBJECT_NAME    = SL-16 R/B
OBJECT_ID      = 1988-039B
CENTER_NAME    = EARTH
REF_FRAME      = TEME
TIME_SYSTEM    = UTC
MEAN_ELEMENT_THEORY = SGP/SGP4

EPOCH          = 2025-12-08T22:36:24.117984
MEAN_MOTION    = 14.19596056
ECCENTRICITY   = .00198074
INCLINATION    = 71.0153
RA_OF_ASC_NODE = 260.4282
ARG_OF_PERICENTER = 122.7204
MEAN_ANOMALY   = 237.5834

EPHEMERIS_TYPE = 0
CLASSIFICATION_TYPE = U
NORAD_CAT_ID   = 19120
ELEMENT_SET_NO = 999
REV_AT_EPOCH   = 94550
BSTAR          = .94803709E-4
MEAN_MOTION_DOT = .153E-5
MEAN_MOTION_DDOT = 0

CCSDS_OMM_VERS = 2.0
CREATION_DATE  = 
ORIGINATOR     = 

OBJECT_NAME    = COSMOS 1953
OBJECT_ID      = 1988-050A
CENTER_NAME    = EARTH
REF_FRAME      = TEME
TIME_SYSTEM    = UTC
MEAN_ELEMENT_THEORY = SGP/SGP4

EPOCH          = 2025-12-09T05:32:45.205728
MEAN_MOTION    = 15.26874044
ECCENTRICITY   = .0013858
INCLINATION    = 82.5090
RA_OF_ASC_NODE = 249.1014
ARG_OF_PERICENTER = 82.2240
MEAN_ANOMALY   = 278.0571

EPHEMERIS_TYPE = 0
CLASSIFICATION_TYPE = U
NORAD_CAT_ID   = 19210
ELEMENT_SET_NO = 999
REV_AT_EPOCH   = 2397
BSTAR          = .29936E-3
MEAN_MOTION_DOT = .7955E-4
MEAN_MOTION_DDOT = 0

CCSDS_OMM_VERS = 2.0
CREATION_DATE  = 
ORIGINATOR     = 

OBJECT_NAME    = SL-8 R/B
OBJECT_ID      = 1988-053B
CENTER_NAME    = EARTH
REF_FRAME      = TEME
TIME_SYSTEM    = UTC
MEAN_ELEMENT_THEORY = SGP/SGP4

EPOCH          = 2025-12-09T02:58:13.211328
MEAN_MOTION    = 14.38855433
ECCENTRICITY   = .0019063
INCLINATION    = 74.0477
RA_OF_ASC_NODE = 279.3836
ARG_OF_PERICENTER = 124.8944
MEAN_ANOMALY   = 246.6397

EPHEMERIS_TYPE = 0
CLASSIFICATION_TYPE = U
NORAD_CAT_ID   = 19257
ELEMENT_SET_NO = 999
REV_AT_EPOCH   = 96357
BSTAR          = .14808E-3
MEAN_MOTION_DOT = .43E-5
MEAN_MOTION_DDOT = 0

CCSDS_OMM_VERS = 2.0
CREATION_DATE  = 
ORIGINATOR     = 

OBJECT_NAME    = COSMOS 1975
OBJECT_ID      = 1988-093A
CENTER_NAME    = EARTH
REF_FRAME      = TEME
TIME_SYSTEM    = UTC
MEAN_ELEMENT_THEORY = SGP/SGP4

EPOCH          = 2025-12-09T02:38:10.981248
MEAN_MOTION    = 15.26390215
ECCENTRICITY   = .0012718
INCLINATION    = 82.5202
RA_OF_ASC_NODE = 208.4624
ARG_OF_PERICENTER = 123.9569
MEAN_ANOMALY   = 236.2880

EPHEMERIS_TYPE = 0
CLASSIFICATION_TYPE = U
NORAD_CAT_ID   = 19573
ELEMENT_SET_NO = 999
REV_AT_EPOCH   = 558
BSTAR          = .37061E-3
MEAN_MOTION_DOT = .9696E-4
MEAN_MOTION_DDOT = 0

CCSDS_OMM_VERS = 2.0
CREATION_DATE  = 
ORIGINATOR     = 

OBJECT_NAME    = SL-14 R/B
OBJECT_ID      = 1988-093B
CENTER_NAME    = EARTH
REF_FRAME      = TEME
TIME_SYSTEM    = UTC
MEAN_ELEMENT_THEORY = SGP/SGP4

EPOCH          = 2025-12-09T03:48:36.578016
MEAN_MOTION    = 14.85542652
ECCENTRICITY   = .0020238
INCLINATION    = 82.5301
RA_OF_ASC_NODE = 127.0277
ARG_OF_PERICENTER = 341.6848
MEAN_ANOMALY   = 191.2142

EPHEMERIS_TYPE = 0
CLASSIFICATION_TYPE = U
NORAD_CAT_ID   = 19574
ELEMENT_SET_NO = 999
REV_AT_EPOCH   = 98759
BSTAR          = .93551E-4
MEAN_MOTION_DOT = .835E-5
MEAN_MOTION_DDOT = 0

CCSDS_OMM_VERS = 2.0
CREATION_DATE  = 
ORIGINATOR     = 

OBJECT_NAME    = SL-16 R/B
OBJECT_ID      = 1988-102B
CENTER_NAME    = EARTH
REF_FRAME      = TEME
TIME_SYSTEM    = UTC
MEAN_ELEMENT_THEORY = SGP/SGP4

EPOCH          = 2025-12-08T17:09:14.161536
MEAN_MOTION    = 14.16136600
ECCENTRICITY   = .00131252
INCLINATION    = 70.9998
RA_OF_ASC_NODE = 342.9125
ARG_OF_PERICENTER = 158.7434
MEAN_ANOMALY   = 201.4237

EPHEMERIS_TYPE = 0
CLASSIFICATION_TYPE = U
NORAD_CAT_ID   = 19650
ELEMENT_SET_NO = 999
REV_AT_EPOCH   = 91401
BSTAR          = -.45808464E-4
MEAN_MOTION_DOT = -.138E-5
MEAN_MOTION_DDOT = 0

CCSDS_OMM_VERS = 2.0
CREATION_DATE  = 
ORIGINATOR     = 

OBJECT_NAME    = INTERCOSMOS 24
OBJECT_ID      = 1989-080A
CENTER_NAME    = EARTH
REF_FRAME      = TEME
TIME_SYSTEM    = UTC
MEAN_ELEMENT_THEORY = SGP/SGP4

EPOCH          = 2025-12-08T22:20:16.118304
MEAN_MOTION    = 12.59428272
ECCENTRICITY   = .11887848
INCLINATION    = 82.6043
RA_OF_ASC_NODE = 163.4294
ARG_OF_PERICENTER = 143.3533
MEAN_ANOMALY   = 225.5192

EPHEMERIS_TYPE = 0
CLASSIFICATION_TYPE = U
NORAD_CAT_ID   = 20261
ELEMENT_SET_NO = 999
REV_AT_EPOCH   = 65537
BSTAR          = .42219595E-3
MEAN_MOTION_DOT = .1455E-4
MEAN_MOTION_DDOT = 0

CCSDS_OMM_VERS = 2.0
CREATION_DATE  = 
ORIGINATOR     = 

OBJECT_NAME    = SL-14 R/B
OBJECT_ID      = 1989-080C
CENTER_NAME    = EARTH
REF_FRAME      = TEME
TIME_SYSTEM    = UTC
MEAN_ELEMENT_THEORY = SGP/SGP4

EPOCH          = 2025-12-08T23:37:02.003808
MEAN_MOTION    = 12.50408873
ECCENTRICITY   = .12307122
INCLINATION    = 82.5934
RA_OF_ASC_NODE = 231.4313
ARG_OF_PERICENTER = 32.1692
MEAN_ANOMALY   = 334.8779

EPHEMERIS_TYPE = 0
CLASSIFICATION_TYPE = U
NORAD_CAT_ID   = 20262
ELEMENT_SET_NO = 999
REV_AT_EPOCH   = 64881
BSTAR          = .18393152E-3
MEAN_MOTION_DOT = .63E-5
MEAN_MOTION_DDOT = 0

CCSDS_OMM_VERS = 2.0
CREATION_DATE  = 
ORIGINATOR     = 

OBJECT_NAME    = DELTA 1 R/B
OBJECT_ID      = 1989-089B
CENTER_NAME    = EARTH
REF_FRAME      = TEME
TIME_SYSTEM    = UTC
MEAN_ELEMENT_THEORY = SGP/SGP4

EPOCH          = 2025-12-08T15:20:03.329088
MEAN_MOTION    = 14.50567796
ECCENTRICITY   = .0070355
INCLINATION    = 97.0756
RA_OF_ASC_NODE = 199.5264
ARG_OF_PERICENTER = 51.0398
MEAN_ANOMALY   = 309.7041

EPHEMERIS_TYPE = 0
CLASSIFICATION_TYPE = U
NORAD_CAT_ID   = 20323
ELEMENT_SET_NO = 999
REV_AT_EPOCH   = 88253
BSTAR          = .18706E-3
MEAN_MOTION_DOT = .722E-5
MEAN_MOTION_DDOT = 0

CCSDS_OMM_VERS = 2.0
CREATION_DATE  = 
ORIGINATOR     = 

OBJECT_NAME    = ARIANE 40 R/B
OBJECT_ID      = 1990-005H
CENTER_NAME    = EARTH
REF_FRAME      = TEME
TIME_SYSTEM    = UTC
MEAN_ELEMENT_THEORY = SGP/SGP4

EPOCH          = 2025-12-08T18:40:22.032192
MEAN_MOTION    = 14.39794841
ECCENTRICITY   = .00111962
INCLINATION    = 98.3247
RA_OF_ASC_NODE = 41.0678
ARG_OF_PERICENTER = 116.5051
MEAN_ANOMALY   = 243.7287

EPHEMERIS_TYPE = 0
CLASSIFICATION_TYPE = U
NORAD_CAT_ID   = 20443
ELEMENT_SET_NO = 999
REV_AT_EPOCH   = 87972
BSTAR          = .23250917E-3
MEAN_MOTION_DOT = .687E-5
MEAN_MOTION_DDOT = 0

